{
    "links": {
        "self": "http://www.neowsapp.com/rest/v1/neo/3802595?api_key=iIulBulltgU6a56xZRHN4H3l9WmuAYTsLGpBGhQ2"
    },
    "id": "3802595",
    "neo_reference_id": "3802595",
    "name": "(2018 GT4)",
    "designation": "2018 GT4",
    "nasa_jpl_url": "http://ssd.jpl.nasa.gov/sbdb.cgi?sstr=3802595",
    "absolute_magnitude_h": 24.3,
    "estimated_diameter": {
        "kilometers": {
            "estimated_diameter_min": 0.0366906138,
            "estimated_diameter_max": 0.0820427065
        },
        "meters": {
            "estimated_diameter_min": 36.6906137531,
            "estimated_diameter_max": 82.0427064882
        },
        "miles": {
            "estimated_diameter_min": 0.0227984834,
            "estimated_diameter_max": 0.0509789586
        },
        "feet": {
            "estimated_diameter_min": 120.3760332259,
            "estimated_diameter_max": 269.1689931548
        }
    },
    "is_potentially_hazardous_asteroid": false,
    "close_approach_data": [
        {
            "close_approach_date": "2018-04-22",
            "close_approach_date_full": "2018-Apr-22 09:17",
            "epoch_date_close_approach": 1524388620000,
            "relative_velocity": {
                "kilometers_per_second": "10.6154231224",
                "kilometers_per_hour": "38215.5232407862",
                "miles_per_hour": "23745.6399825874"
            },
            "miss_distance": {
                "astronomical": "0.1148500757",
                "lunar": "44.6766794473",
                "kilometers": "17181326.694058759",
                "miles": "10675981.3558545142"
            },
            "orbiting_body": "Earth"
        }
    ],
    "orbital_data": {
        "orbit_id": "4",
        "orbit_determination_date": "2018-04-23 07:30:57",
        "first_observation_date": "2018-04-12",
        "last_observation_date": "2018-04-23",
        "data_arc_in_days": 11,
        "observations_used": 21,
        "orbit_uncertainty": "8",
        "minimum_orbit_intersection": ".107364",
        "jupiter_tisserand_invariant": "4.422",
        "epoch_osculation": "2458224.5",
        "eccentricity": ".2689686499980492",
        "semi_major_axis": "1.510586031514805",
        "inclination": "19.585716540375",
        "ascending_node_longitude": "34.72081818496368",
        "orbital_period": "678.1357240391663",
        "perihelion_distance": "1.104285745912357",
        "perihelion_argument": "163.1750047055307",
        "aphelion_distance": "1.916886317117253",
        "perihelion_time": "2458214.002496616136",
        "mean_anomaly": "5.572780026513947",
        "mean_motion": ".5308671807698599",
        "equinox": "J2000",
        "orbit_class": {
            "orbit_class_type": "AMO",
            "orbit_class_description": "Near-Earth asteroid orbits similar to that of 1221 Amor",
            "orbit_class_range": "1.017 AU < q (perihelion) < 1.3 AU"
        }
    },
    "is_sentry_object": false
}